{
  "type": "FeatureCollection",
  "features": [
    {
      "type": "Feature",
      "properties": {
        "norad_id": 30436,
        "name": "FENGYUN 1C DEB",
        "group": "fengyun-1c-debris",
        "lat": 63.70394609031395,
        "lon": 91.39512174186119,
        "alt_km": 745.0830222752775,
        "timestamp": "2025-12-26T12:57:39.549208+00:00",
        "meta_object_name": "FENGYUN 1C DEB",
        "meta_object_id": "1999-025AEX",
        "meta_epoch": "2025-12-26T04:41:21.219072",
        "meta_mean_motion": 14.22406479,
        "meta_eccentricity": 0.0098448,
        "meta_inclination": 98.4268,
        "meta_ra_of_asc_node": 253.6084,
        "meta_arg_of_pericenter": 94.1968,
        "meta_mean_anomaly": 56.4742,
        "meta_ephemeris_type": 0,
        "meta_classification_type": "U",
        "meta_norad_cat_id": 30436,
        "meta_element_set_no": 999,
        "meta_rev_at_epoch": 96628,
        "meta_bstar": 0.0019827026,
        "meta_mean_motion_dot": 4.601e-05,
        "meta_mean_motion_ddot": 0,
        "tle_line1": "1 30436U 99025AEX 25360.19538448  .00004601  00000+0  19827-2 0  9998",
        "tle_line2": "2 30436  98.4268 253.6084 0098448  94.1968  56.4742 14.22406479966281"
      },
      "geometry": {
        "type": "Point",
        "coordinates": [
          91.39512174186119,
          63.70394609031395
        ]
      }
    },
    {
      "type": "Feature",
      "properties": {
        "norad_id": 30437,
        "name": "FENGYUN 1C DEB",
        "group": "fengyun-1c-debris",
        "lat": -52.19873843805154,
        "lon": -169.66090568383765,
        "alt_km": 633.7872378186457,
        "timestamp": "2025-12-26T12:57:39.549218+00:00",
        "meta_object_name": "FENGYUN 1C DEB",
        "meta_object_id": "1999-025AEY",
        "meta_epoch": "2025-12-25T07:27:16.068960",
        "meta_mean_motion": 14.8853895,
        "meta_eccentricity": 0.0035321,
        "meta_inclination": 98.9209,
        "meta_ra_of_asc_node": 20.6389,
        "meta_arg_of_pericenter": 63.1528,
        "meta_mean_anomaly": 65.4069,
        "meta_ephemeris_type": 0,
        "meta_classification_type": "U",
        "meta_norad_cat_id": 30437,
        "meta_element_set_no": 999,
        "meta_rev_at_epoch": 99374,
        "meta_bstar": 0.0023199,
        "meta_mean_motion_dot": 0.0002182,
        "meta_mean_motion_ddot": 0,
        "tle_line1": "1 30437U 99025AEY 25359.31060265  .00021820  00000+0  23199-2 0  9997",
        "tle_line2": "2 30437  98.9209  20.6389 0035321  63.1528  65.4069 14.88538950993746"
      },
      "geometry": {
        "type": "Point",
        "coordinates": [
          -169.66090568383765,
          -52.19873843805154
        ]
      }
    },
    {
      "type": "Feature",
      "properties": {
        "norad_id": 30438,
        "name": "FENGYUN 1C DEB",
        "group": "fengyun-1c-debris",
        "lat": -46.74127006508494,
        "lon": 26.219435951571754,
        "alt_km": 1022.2048902040324,
        "timestamp": "2025-12-26T12:57:39.549228+00:00",
        "meta_object_name": "FENGYUN 1C DEB",
        "meta_object_id": "1999-025AEZ",
        "meta_epoch": "2025-12-25T00:58:15.685248",
        "meta_mean_motion": 13.92140653,
        "meta_eccentricity": 0.01348772,
        "meta_inclination": 98.7499,
        "meta_ra_of_asc_node": 15.3837,
        "meta_arg_of_pericenter": 153.1315,
        "meta_mean_anomaly": 207.6915,
        "meta_ephemeris_type": 0,
        "meta_classification_type": "U",
        "meta_norad_cat_id": 30438,
        "meta_element_set_no": 999,
        "meta_rev_at_epoch": 95477,
        "meta_bstar": 0.001231799,
        "meta_mean_motion_dot": 1.658e-05,
        "meta_mean_motion_ddot": 0,
        "tle_line1": "1 30438U 99025AEZ 25359.04045932  .00001658  00000+0  12318-2 0  9990",
        "tle_line2": "2 30438  98.7499  15.3837 0134877 153.1315 207.6915 13.92140653954778"
      },
      "geometry": {
        "type": "Point",
        "coordinates": [
          26.219435951571754,
          -46.74127006508494
        ]
      }
    },
    {
      "type": "Feature",
      "properties": {
        "norad_id": 30439,
        "name": "FENGYUN 1C DEB",
        "group": "fengyun-1c-debris",
        "lat": -9.253963963777885,
        "lon": 13.287486642066565,
        "alt_km": 850.7188839622113,
        "timestamp": "2025-12-26T12:57:39.549238+00:00",
        "meta_object_name": "FENGYUN 1C DEB",
        "meta_object_id": "1999-025AFA",
        "meta_epoch": "2025-12-24T23:50:12.384096",
        "meta_mean_motion": 14.08860456,
        "meta_eccentricity": 0.00383093,
        "meta_inclination": 98.7498,
        "meta_ra_of_asc_node": 10.3483,
        "meta_arg_of_pericenter": 301.6103,
        "meta_mean_anomaly": 127.7277,
        "meta_ephemeris_type": 0,
        "meta_classification_type": "U",
        "meta_norad_cat_id": 30439,
        "meta_element_set_no": 999,
        "meta_rev_at_epoch": 96964,
        "meta_bstar": 0.00048908313,
        "meta_mean_motion_dot": 8.07e-06,
        "meta_mean_motion_ddot": 0,
        "tle_line1": "1 30439U 99025AFA 25358.99319889  .00000807  00000+0  48908-3 0  9999",
        "tle_line2": "2 30439  98.7498  10.3483 0038309 301.6103 127.7277 14.08860456969641"
      },
      "geometry": {
        "type": "Point",
        "coordinates": [
          13.287486642066565,
          -9.253963963777885
        ]
      }
    },
    {
      "type": "Feature",
      "properties": {
        "norad_id": 30441,
        "name": "FENGYUN 1C DEB",
        "group": "fengyun-1c-debris",
        "lat": -72.03782002679776,
        "lon": -120.36729817701855,
        "alt_km": 865.3550648215005,
        "timestamp": "2025-12-26T12:57:39.549258+00:00",
        "meta_object_name": "FENGYUN 1C DEB",
        "meta_object_id": "1999-025AFC",
        "meta_epoch": "2025-12-26T04:45:23.222016",
        "meta_mean_motion": 13.77696194,
        "meta_eccentricity": 0.01844261,
        "meta_inclination": 99.1338,
        "meta_ra_of_asc_node": 89.0557,
        "meta_arg_of_pericenter": 221.9685,
        "meta_mean_anomaly": 136.721,
        "meta_ephemeris_type": 0,
        "meta_classification_type": "U",
        "meta_norad_cat_id": 30441,
        "meta_element_set_no": 999,
        "meta_rev_at_epoch": 95055,
        "meta_bstar": 0.00061386115,
        "meta_mean_motion_dot": 6.52e-06,
        "meta_mean_motion_ddot": 0,
        "tle_line1": "1 30441U 99025AFC 25360.19818544  .00000652  00000+0  61386-3 0  9992",
        "tle_line2": "2 30441  99.1338  89.0557 0184426 221.9685 136.7210 13.77696194950556"
      },
      "geometry": {
        "type": "Point",
        "coordinates": [
          -120.36729817701855,
          -72.03782002679776
        ]
      }
    },
    {
      "type": "Feature",
      "properties": {
        "norad_id": 30442,
        "name": "FENGYUN 1C DEB",
        "group": "fengyun-1c-debris",
        "lat": -46.97710447573398,
        "lon": 103.98746049155989,
        "alt_km": 785.5528089556583,
        "timestamp": "2025-12-26T12:57:39.549269+00:00",
        "meta_object_name": "FENGYUN 1C DEB",
        "meta_object_id": "1999-025AFD",
        "meta_epoch": "2025-12-26T04:46:48.625824",
        "meta_mean_motion": 14.28746883,
        "meta_eccentricity": 0.00559881,
        "meta_inclination": 98.8657,
        "meta_ra_of_asc_node": 94.0135,
        "meta_arg_of_pericenter": 248.27,
        "meta_mean_anomaly": 111.2516,
        "meta_ephemeris_type": 0,
        "meta_classification_type": "U",
        "meta_norad_cat_id": 30442,
        "meta_element_set_no": 999,
        "meta_rev_at_epoch": 97354,
        "meta_bstar": 0.002282655,
        "meta_mean_motion_dot": 5.801e-05,
        "meta_mean_motion_ddot": 0,
        "tle_line1": "1 30442U 99025AFD 25360.19917391  .00005801  00000+0  22827-2 0  9990",
        "tle_line2": "2 30442  98.8657  94.0135 0055988 248.2700 111.2516 14.28746883973544"
      },
      "geometry": {
        "type": "Point",
        "coordinates": [
          103.98746049155989,
          -46.97710447573398
        ]
      }
    },
    {
      "type": "Feature",
      "properties": {
        "norad_id": 30443,
        "name": "FENGYUN 1C DEB",
        "group": "fengyun-1c-debris",
        "lat": 15.739093672486309,
        "lon": 130.55639428790025,
        "alt_km": 782.6764593454745,
        "timestamp": "2025-12-26T12:57:39.549279+00:00",
        "meta_object_name": "FENGYUN 1C DEB",
        "meta_object_id": "1999-025AFE",
        "meta_epoch": "2025-12-25T19:29:12.989760",
        "meta_mean_motion": 14.36966617,
        "meta_eccentricity": 0.00265438,
        "meta_inclination": 98.8498,
        "meta_ra_of_asc_node": 307.2915,
        "meta_arg_of_pericenter": 301.5556,
        "meta_mean_anomaly": 58.3038,
        "meta_ephemeris_type": 0,
        "meta_classification_type": "U",
        "meta_norad_cat_id": 30443,
        "meta_element_set_no": 999,
        "meta_rev_at_epoch": 97621,
        "meta_bstar": 0.0024847466,
        "meta_mean_motion_dot": 7.351e-05,
        "meta_mean_motion_ddot": 0,
        "tle_line1": "1 30443U 99025AFE 25359.81195590  .00007351  00000+0  24847-2 0  9993",
        "tle_line2": "2 30443  98.8498 307.2915 0026543 301.5556  58.3038 14.36966617976215"
      },
      "geometry": {
        "type": "Point",
        "coordinates": [
          130.55639428790025,
          15.739093672486309
        ]
      }
    }
  ]
}